{"fetched_at":"2026-07-05T17:41:41.695Z","source":"https://celestrak.org/NORAD/elements/gp.php?NAME=SENTINEL&FORMAT=JSON","constellation":"sentinel-1","records":[{"OBJECT_NAME":"SENTINEL-1A","OBJECT_ID":"2014-016A","EPOCH":"2026-07-05T06:21:03.487680","CLASSIFICATION_TYPE":"U","MEAN_MOTION":14.5920022,"ECCENTRICITY":0.00013793,"INCLINATION":98.1778,"RA_OF_ASC_NODE":193.5337,"ARG_OF_PERICENTER":86.0922,"MEAN_ANOMALY":274.0435,"EPHEMERIS_TYPE":0,"NORAD_CAT_ID":39634,"ELEMENT_SET_NO":999,"REV_AT_EPOCH":65265,"BSTAR":0.000025978629,"MEAN_MOTION_DOT":7.7e-7,"MEAN_MOTION_DDOT":0},{"OBJECT_NAME":"SENTINEL-1C","OBJECT_ID":"2024-235A","EPOCH":"2026-07-05T07:17:46.864896","CLASSIFICATION_TYPE":"U","MEAN_MOTION":14.59197631,"ECCENTRICITY":0.00012913,"INCLINATION":98.1823,"RA_OF_ASC_NODE":193.3537,"ARG_OF_PERICENTER":90.6275,"MEAN_ANOMALY":269.5073,"EPHEMERIS_TYPE":0,"NORAD_CAT_ID":62261,"ELEMENT_SET_NO":999,"REV_AT_EPOCH":8405,"BSTAR":-0.000014097733,"MEAN_MOTION_DOT":-0.00000112,"MEAN_MOTION_DDOT":0},{"OBJECT_NAME":"SENTINEL-1D","OBJECT_ID":"2025-251A","EPOCH":"2026-07-04T23:53:39.434784","CLASSIFICATION_TYPE":"U","MEAN_MOTION":14.59197335,"ECCENTRICITY":0.00013065,"INCLINATION":98.1835,"RA_OF_ASC_NODE":193.1045,"ARG_OF_PERICENTER":90.7095,"MEAN_ANOMALY":269.4254,"EPHEMERIS_TYPE":0,"NORAD_CAT_ID":66315,"ELEMENT_SET_NO":999,"REV_AT_EPOCH":3532,"BSTAR":-0.000015563546,"MEAN_MOTION_DOT":-0.00000119,"MEAN_MOTION_DDOT":0}]}
